NORAD_CAT_ID,OBJECT_NAME,OBJECT_TYPE,EPOCH,MEAN_MOTION,ECCENTRICITY,INCLINATION,RA_OF_ASC_NODE,ARG_OF_PERICENTER,MEAN_ANOMALY,BSTAR,MEAN_MOTION_DOT,MEAN_MOTION_DDOT,TLE_LINE0,TLE_LINE1,TLE_LINE2,SEMIMAJOR_AXIS,PERIOD,APOGEE,PERIGEE,DECAYED
53986.0,STARLINK-5119,PAYLOAD,2023-07-05 02:23:54,15.08831457,8.1e-05,53.217,276.8622,87.391,272.7175,9.6295e-06,-1.34e-06,0.0,0 STARLINK-5119,1 53986U 22125Y   23186.09993601 -.00000134  00000-0  96295-5 0  9995,2 53986  53.2170 276.8622 0000810  87.3910 272.7175 15.08831457 41942,6917.907,95.438,540.332,539.211,0.0
53986.0,STARLINK-5119,PAYLOAD,2023-07-05 13:31:35,15.08841615,8.26e-05,53.2169,274.78,85.2005,274.9081,3.2417e-05,2.28e-06,0.0,0 STARLINK-5119,1 53986U 22125Y   23186.56361045  .00000228  00000-0  32417-4 0  9996,2 53986  53.2169 274.7800 0000826  85.2005 274.9081 15.08841615 42010,6917.875,95.437,540.312,539.169,0.0
53986.0,STARLINK-5119,PAYLOAD,2023-07-06 05:25:27,15.08835415,8.09e-05,53.217,271.8066,90.5362,269.5723,8.6765e-05,1.093e-05,0.0,0 STARLINK-5119,1 53986U 22125Y   23187.22601419  .00001093  00000-0  86765-4 0  9998,2 53986  53.2170 271.8066 0000809  90.5362 269.5723 15.08835415 42115,6917.894,95.438,540.319,539.2,0.0
53986.0,STARLINK-5119,PAYLOAD,2023-07-06 13:22:22,15.08844705,8.56e-05,53.217,270.3199,85.809,274.3,9.9884e-05,1.303e-05,0.0,0 STARLINK-5119,1 53986U 22125Y   23187.55720908  .00001303  00000-0  99884-4 0  9999,2 53986  53.2170 270.3199 0000856  85.8090 274.3000 15.08844705 42162,6917.866,95.437,540.323,539.139,0.0
53986.0,STARLINK-5119,PAYLOAD,2023-07-07 22:45:28,15.08846139,9.41e-05,53.2169,264.0764,75.5552,284.5544,0.00011526,1.547e-05,0.0,0 STARLINK-5119,1 53986U 22125Y   23188.94824661  .00001547  00000-0  11526-3 0  9990,2 53986  53.2169 264.0764 0000941  75.5552 284.5544 15.08846139 42374,6917.862,95.437,540.378,539.076,0.0
53986.0,STARLINK-5119,PAYLOAD,2023-07-08 08:17:47,15.08839958,9.83e-05,53.2167,262.2924,76.5786,283.5315,4.6191e-05,4.47e-06,0.0,0 STARLINK-5119,1 53986U 22125Y   23189.34569154  .00000447  00000-0  46191-4 0  9993,2 53986  53.2167 262.2924 0000983  76.5786 283.5315 15.08839958 42439,6917.881,95.438,540.426,539.065,0.0
53986.0,STARLINK-5119,PAYLOAD,2023-07-09 11:19:21,15.08835727,9.1e-05,53.2169,257.2367,89.6692,270.4405,-5.2109e-05,-1.117e-05,0.0,0 STARLINK-5119,1 53986U 22125Y   23190.47177622 -.00001117  00000-0 -52109-4 0  9997,2 53986  53.2169 257.2367 0000910  89.6692 270.4405 15.08835727 42601,6917.893,95.438,540.388,539.129,0.0
53986.0,STARLINK-5119,PAYLOAD,2023-07-10 11:10:08,15.08840411,9.09e-05,53.217,252.7766,87.982,272.1277,6.7634e-05,7.89e-06,0.0,0 STARLINK-5119,1 53986U 22125Y   23191.46537090  .00000789  00000-0  67634-4 0  9997,2 53986  53.2170 252.7766 0000909  87.9820 272.1277 15.08840411 42756,6917.879,95.438,540.373,539.115,0.0
53986.0,STARLINK-5119,PAYLOAD,2023-07-10 20:42:27,15.08834875,9.13e-05,53.2167,250.9922,84.9427,275.167,5.8883e-05,6.49e-06,0.0,0 STARLINK-5119,1 53986U 22125Y   23191.86281521  .00000649  00000-0  58883-4 0  9997,2 53986  53.2167 250.9922 0000913  84.9427 275.1670 15.08834875 42815,6917.896,95.438,540.393,539.129,0.0
53986.0,STARLINK-5119,PAYLOAD,2023-07-12 02:54:46,15.08838926,9.37e-05,53.2163,245.3423,87.8255,272.2845,5.0476e-05,5.16e-06,0.0,0 STARLINK-5119,1 53986U 22125Y   23193.12137619  .00000516  00000-0  50476-4 0  9999,2 53986  53.2163 245.3423 0000937  87.8255 272.2845 15.08838926 43007,6917.884,95.438,540.397,539.1,0.0
53986.0,STARLINK-5119,PAYLOAD,2023-07-13 12:17:52,15.08840526,0.0001031,53.2167,239.0964,87.0372,273.0738,2.8955e-05,1.73e-06,0.0,0 STARLINK-5119,1 53986U 22125Y   23194.51241695  .00000173  00000-0  28955-4 0  9999,2 53986  53.2167 239.0964 0001031  87.0372 273.0738 15.08840526 43211,6917.879,95.438,540.457,539.031,0.0
53986.0,STARLINK-5119,PAYLOAD,2023-07-13 20:14:48,15.08834915,0.0001091,53.2166,237.6088,83.0467,277.0649,-1.0127e-05,-4.49e-06,0.0,0 STARLINK-5119,1 53986U 22125Y   23194.84362236 -.00000449  00000-0 -10127-4 0  9990,2 53986  53.2166 237.6088 0001091  83.0467 277.0649 15.08834915 43263,6917.896,95.438,540.516,539.006,0.0
53986.0,STARLINK-5119,PAYLOAD,2023-07-15 02:27:08,15.08835649,9.8e-05,53.2155,231.9583,86.3367,273.7737,0.00016215,2.293e-05,0.0,0 STARLINK-5119,1 53986U 22125Y   23196.10217832  .00002293  00000-0  16215-3 0  9992,2 53986  53.2155 231.9583 0000980  86.3367 273.7737 15.08835649 43456,6917.894,95.438,540.437,539.081,0.0
53986.0,STARLINK-5119,PAYLOAD,2023-07-15 08:48:40,15.08845887,0.0001051,53.2159,230.7701,77.1506,282.9604,9.6692e-05,1.252e-05,0.0,0 STARLINK-5119,1 53986U 22125Y   23196.36713405  .00001252  00000-0  96692-4 0  9999,2 53986  53.2159 230.7701 0001051  77.1506 282.9604 15.08845887 43496,6917.862,95.437,540.454,539.0,0.0
53986.0,STARLINK-5119,PAYLOAD,2023-07-16 02:17:55,15.08833766,0.0001124,53.2159,227.4999,74.6023,285.5093,4.4382e-05,4.18e-06,0.0,0 STARLINK-5119,1 53986U 22125Y   23197.09578340  .00000418  00000-0  44382-4 0  9999,2 53986  53.2159 227.4999 0001124  74.6023 285.5093 15.08833766 43602,6917.899,95.438,540.542,538.987,0.0
53986.0,STARLINK-5119,PAYLOAD,2023-07-17 18:02:34,15.08838648,0.000102,53.216,220.0652,83.6824,276.4284,-9.9453e-06,-4.46e-06,0.0,0 STARLINK-5119,1 53986U 22125Y   23198.75178271 -.00000446  00000-0 -99453-5 0  9995,2 53986  53.2160 220.0652 0001020  83.6824 276.4284 15.08838648 43855,6917.885,95.438,540.455,539.044,0.0
53986.0,STARLINK-5119,PAYLOAD,2023-07-19 01:50:17,15.08835459,9.91e-05,53.2157,214.1171,79.1846,280.9258,1.1614e-05,-1.03e-06,0.0,0 STARLINK-5119,1 53986U 22125Y   23200.07658642 -.00000103  00000-0  11614-4 0  9990,2 53986  53.2157 214.1171 0000991  79.1846 280.9258 15.08835459 44052,6917.894,95.438,540.445,539.074,0.0
53986.0,STARLINK-5119,PAYLOAD,2023-07-20 08:02:36,15.08838778,0.0001002,53.2161,208.4669,86.1205,273.9902,2.08e-05,4.3e-07,0.0,0 STARLINK-5119,1 53986U 22125Y   23201.33514614  .00000043  00000-0  20800-4 0  9999,2 53986  53.2161 208.4669 0001002  86.1205 273.9902 15.08838778 44242,6917.884,95.438,540.442,539.056,0.0
53986.0,STARLINK-5119,PAYLOAD,2023-07-21 09:28:46,15.08839181,0.0001008,53.2161,203.7089,83.486,276.6247,5.4115e-05,5.74e-06,0.0,0 STARLINK-5119,1 53986U 22125Y   23202.39498602  .00000574  00000-0  54115-4 0  9999,2 53986  53.2161 203.7089 0001008  83.4860 276.6247 15.08839181 44408,6917.883,95.438,540.445,539.051,0.0
53986.0,STARLINK-5119,PAYLOAD,2023-07-24 09:01:08,15.08836055,0.0001144,53.2162,190.3276,84.7395,275.3727,-2.5334e-05,-6.91e-06,0.0,0 STARLINK-5119,1 53986U 22125Y   23205.37579002 -.00000691  00000-0 -25334-4 0  9997,2 53986  53.2162 190.3276 0001144  84.7395 275.3727 15.08836055 44772,6917.892,95.438,540.549,538.966,0.0
53986.0,STARLINK-5119,PAYLOAD,2023-07-25 07:16:31,15.08838934,0.0001239,53.2167,186.164,84.7702,275.3431,5.6428e-05,6.1e-06,0.0,0 STARLINK-5119,1 53986U 22125Y   23206.30314734  .00000610  00000-0  56428-4 0  9997,2 53986  53.2167 186.1640 0001239  84.7702 275.3431 15.08838934 44918,6917.884,95.438,540.606,538.892,0.0
53986.0,STARLINK-5119,PAYLOAD,2023-07-26 07:07:19,15.08836021,0.0001479,53.2135,181.7058,83.7746,276.3414,2.773e-05,1.53e-06,0.0,0 STARLINK-5119,1 53986U 22125Y   23207.29675399  .00000153  00000-0  27730-4 0  9999,2 53986  53.2135 181.7058 0001479  83.7746 276.3414 15.08836021 45064,6917.893,95.438,540.781,538.734,0.0
53986.0,STARLINK-5119,PAYLOAD,2023-07-27 00:36:33,15.08840133,0.0001243,53.2173,178.4361,96.4026,263.7108,4.7086e-05,4.62e-06,0.0,0 STARLINK-5119,1 53986U 22125Y   23208.02539078  .00000462  00000-0  47086-4 0  9993,2 53986  53.2173 178.4361 0001243  96.4026 263.7108 15.08840133 45257,6917.88,95.438,540.605,538.885,0.0
53986.0,STARLINK-5119,PAYLOAD,2023-07-27 06:58:06,15.08841948,0.0001288,53.2175,177.247,95.882,264.2319,6.2919e-05,7.14e-06,0.0,0 STARLINK-5119,1 53986U 22125Y   23208.29034921  .00000714  00000-0  62919-4 0  9991,2 53986  53.2175 177.2470 0001288  95.8820 264.2319 15.08841948 45212,6917.874,95.437,540.63,538.848,0.0
53986.0,STARLINK-5119,PAYLOAD,2023-07-28 06:48:54,15.08831976,0.000114,53.2162,172.7834,89.9537,270.1585,-2.0461e-05,-6.13e-06,0.0,0 STARLINK-5119,1 53986U 22125Y   23209.28396103 -.00000613  00000-0 -20461-4 0  9990,2 53986  53.2162 172.7834 0001140  89.9537 270.1585 15.08831976 45444,6917.905,95.438,540.559,538.981,0.0
53986.0,STARLINK-5119,PAYLOAD,2023-07-29 03:28:56,15.08683444,0.0002149,53.216,168.918,86.5755,273.5483,0.0021522,0.00033984,0.0,0 STARLINK-5119,1 53986U 22125Y   23210.14509896  .00033984  00000-0  21522-2 0  9994,2 53986  53.2160 168.9180 0002149  86.5755 273.5483 15.08683444 45571,6918.359,95.447,541.711,538.737,0.0
53986.0,STARLINK-5119,PAYLOAD,2023-07-29 06:39:40,15.08849151,0.0001181,53.2162,168.3235,84.1246,275.988,7.5704e-05,9.17e-06,0.0,0 STARLINK-5119,1 53986U 22125Y   23210.27754824  .00000917  00000-0  75704-4 0  9994,2 53986  53.2162 168.3235 0001181  84.1246 275.9880 15.08849151 45590,6917.852,95.437,540.534,538.9,0.0
53986.0,STARLINK-5119,PAYLOAD,2023-07-29 14:36:36,15.0883714,0.0001131,53.2169,166.8357,85.2248,274.8873,9.3297e-05,1.197e-05,0.0,0 STARLINK-5119,1 53986U 22125Y   23210.60875445  .00001197  00000-0  93297-4 0  9992,2 53986  53.2169 166.8357 0001131  85.2248 274.8873 15.08837140 45645,6917.889,95.438,540.537,538.972,0.0
53986.0,STARLINK-5119,PAYLOAD,2023-07-31 01:35:05,15.08842189,0.0001268,53.2171,160.2926,88.9271,271.1866,8.2629e-06,-1.56e-06,0.0,0 STARLINK-5119,1 53986U 22125Y   23212.06603497 -.00000156  00000-0  82629-5 0  9993,2 53986  53.2171 160.2926 0001268  88.9271 271.1866 15.08842189 45860,6917.874,95.437,540.616,538.862,0.0
53986.0,STARLINK-5119,PAYLOAD,2023-08-01 03:01:15,15.08839037,0.0001368,53.2169,155.5325,108.7373,251.3768,-3.6584e-05,-8.7e-06,0.0,0 STARLINK-5119,1 53986U 22125Y   23213.12587907 -.00000870  00000-0 -36584-4 0  9990,2 53986  53.2169 155.5325 0001368 108.7373 251.3768 15.08839037 46020,6917.883,95.438,540.695,538.802,0.0
